<kml xmlns="http://www.opengis.net/kml/2.2" xmlns:gx="http://www.google.com/kml/ext/2.2" xmlns:xsi="http://www.w3.org/2001/XMLSchema-instance" xsi:schemaLocation="http://www.opengis.net/kml/2.2 https://developers.google.com/kml/schema/kml22gx.xsd"><Placemark><Style><LineStyle><color>ffffffff</color><width>1</width></LineStyle><PolyStyle><color>ffffffff</color></PolyStyle></Style><ExtendedData><Data name="i-map-text-indent"><value>-16</value></Data><Data name="i-map-text-scale"><value>0.8</value></Data></ExtendedData><Polygon><outerBoundaryIs><LinearRing><coordinates>-46.76091443268798,-23.535278683050706 -46.76091147593341,-23.53552364919564 -46.76088045149507,-23.53561969833582 -46.76089743620446,-23.535809638125244 -46.76085342930128,-23.53604667274628 -46.760718470989495,-23.536300626225355 -46.76057447487241,-23.536421697795916 -46.76044042861354,-23.536598630947665 -46.76025442495167,-23.53661563205594 -46.7598874480611,-23.53614770382775 -46.75956743828206,-23.53564665188439 -46.759063447332665,-23.53500467406633 -46.758907425769706,-23.534731622119608 -46.759154412471915,-23.533361611225175 -46.75798244059346,-23.533043615990223 -46.756967450181726,-23.537502696633112 -46.75586242798627,-23.54175468979834 -46.755609385397406,-23.541686675304547 -46.75527142459592,-23.542923731117938 -46.753991368244,-23.54253073209449 -46.75355338047719,-23.542590742150793 -46.75272343203398,-23.542143724691286 -46.7528063919294,-23.54173074589474 -46.75190336927093,-23.541436671143742 -46.750881363043554,-23.541512729771227 -46.747709345705424,-23.542129725403 -46.74729938302817,-23.541957740674633 -46.746851338800354,-23.54136068568741 -46.7466293557317,-23.54037269977151 -46.74619736465153,-23.539779705363927 -46.74551929256494,-23.53941869596126 -46.74465833667513,-23.539378699593428 -46.74366132137296,-23.53979975717877 -46.74327233978925,-23.540219773648914 -46.74352430467988,-23.541241736559144 -46.74351429373269,-23.54157273095116 -46.74324934999455,-23.54172872786127 -46.742903344399224,-23.541555743539135 -46.74252926770045,-23.54131175035654 -46.742412274710155,-23.541724745336893 -46.74261229322226,-23.542169759925613 -46.74305527967282,-23.542549757224208 -46.743034320837154,-23.54303670037889 -46.743297292077095,-23.54321476782843 -46.74364331589059,-23.54353572235324 -46.743865286722674,-23.543666760259043 -46.74412531219347,-23.543890722253266 -46.744096292967654,-23.54453773464455 -46.744250314200386,-23.545131775487846 -46.74440031544076,-23.545506747818337 -46.74445335626493,-23.546098761018825 -46.74456236991861,-23.54653179244039 -46.744759373372624,-23.546979726147157 -46.74407535376,-23.547847781824174 -46.74348134459408,-23.54834575470845 -46.74359235532611,-23.548556762033513 -46.74567934414894,-23.548426726158652 -46.745920387888575,-23.54855176844164 -46.74696735271088,-23.54993178921748 -46.74814139479063,-23.551745800127364 -46.74738838235067,-23.553186758813055 -46.747385415978044,-23.55377479475814 -46.749601434127406,-23.556002753850706 -46.75004238904055,-23.556693769197025 -46.74831437087455,-23.55778078751912 -46.747890423516786,-23.55813683915548 -46.74768438856291,-23.558357816859825 -46.74747639623878,-23.558485826560087 -46.74661525693847,-23.558590244117553 -46.74672597589963,-23.558658064414658 -46.74672727426326,-23.558658773238022 -46.74672741718482,-23.558658826664725 -46.74677833559574,-23.558686649451133 -46.747157596662305,-23.558893701487293 -46.747232083513296,-23.559023574609682 -46.747260419668955,-23.559072825709933 -46.74726040530732,-23.559072955638214 -46.747260623162575,-23.559073335484015 -46.7472225897594,-23.55941836924265 -46.74723515274466,-23.559524779071737 -46.74724135331833,-23.559574823300025 -46.747241165211264,-23.559575705276515 -46.747241412778685,-23.559577802197396 -46.74720138501538,-23.559769829042324 -46.746763818879906,-23.56182279551645 -46.74674285852958,-23.56192168108751 -46.746682399883134,-23.562204847843446 -46.746652361097325,-23.56234882320686 -46.74665238305921,-23.562348835592985 -46.74664222856971,-23.56238683678292 -46.74656365929365,-23.562681357834748 -46.74655060954689,-23.562706727061908 -46.74655058360983,-23.562706739383174 -46.746452100461724,-23.562885216960055 -46.7464473929778,-23.562893819845314 -46.746418668194586,-23.562936936049653 -46.74633864683478,-23.563058073349367 -46.74601960387238,-23.56353736015113 -46.74583669616589,-23.563813556995285 -46.74582494719948,-23.56382811439323 -46.74581769983284,-23.563838992691416 -46.741437403529154,-23.569254382437435 -46.739451487283006,-23.5716661842623 -46.739188434669984,-23.571995938970062 -46.739016649036344,-23.572164250256805 -46.73898328177059,-23.572191254129336 -46.73892583999702,-23.572249877377175 -46.73886928992762,-23.57228350681254 -46.73884312251423,-23.572304683880944 -46.73868549638322,-23.572431848603784 -46.73757516945695,-23.572985325221197 -46.737511690316204,-23.573017182158424 -46.73751141419306,-23.573016897454067 -46.73750100332578,-23.573022103740016 -46.73747174328152,-23.57297599366416 -46.73746967915194,-23.57297386538596 -46.73746163202582,-23.57296837189817 -46.73736093897686,-23.57290516830652 -46.73732252304014,-23.572882457952872 -46.737149380836314,-23.572857930912534 -46.73711699163912,-23.572822916376367 -46.73709530943598,-23.572799925524038 -46.73702469174719,-23.572725149316753 -46.736949799647334,-23.572675423132992 -46.73692749806986,-23.572661123318625 -46.73685584870182,-23.57262005304017 -46.736852343539255,-23.57261765461766 -46.736776297813144,-23.572566231588752 -46.73672749754028,-23.572547185924336 -46.736633145632155,-23.5725104124638 -46.73650915612299,-23.572462052987234 -46.736479524447596,-23.572444779222437 -46.736479213735336,-23.57244459781394 -46.73627836331574,-23.572336791825308 -46.73627223232937,-23.572333701938987 -46.7362521445352,-23.57232345373039 -46.736188874890615,-23.572291388453877 -46.7361843209311,-23.57228909201494 -46.736158930898185,-23.572274930647126 -46.73615771104546,-23.57227431230544 -46.73608919029131,-23.572236076228307 -46.73604777818808,-23.57221302569316 -46.735646970033415,-23.57199789239492 -46.735640752440624,-23.57199488784545 -46.73564086989249,-23.571994616016298 -46.735225318053594,-23.571769868242612 -46.73522539212865,-23.571769038761275 -46.73520622381281,-23.571760855573785 -46.73521668509261,-23.571653303672832 -46.73521705334708,-23.57165059111317 -46.73521740681889,-23.571649583032595 -46.735169492691334,-23.57162733966861 -46.73516751591578,-23.57163687977436 -46.7351577013201,-23.57163382951002 -46.735044292898145,-23.571572982065277 -46.73499832735815,-23.571548306715897 -46.734980618341595,-23.571639147156333 -46.73495542805109,-23.571627872359272 -46.734873883473966,-23.571591691473216 -46.734853368257355,-23.571582895071558 -46.73485335737104,-23.571582584151244 -46.73485320952623,-23.57158251855327 -46.7348533228562,-23.57158159838464 -46.73484848253296,-23.57144335547318 -46.7348483849414,-23.5714428165016 -46.73484569555807,-23.571434153565022 -46.73476083021297,-23.57128220198466 -46.73475367572601,-23.571274234679464 -46.73474682310656,-23.571267693972032 -46.73468503536782,-23.57121925973226 -46.73466562580979,-23.571206693849504 -46.73466230216055,-23.571204989719035 -46.73462660942,-23.571187557903528 -46.73458884255585,-23.57117279252593 -46.73453689134567,-23.571159874198216 -46.73451179783664,-23.571156155685628 -46.73446221990413,-23.571151364623688 -46.734454594195725,-23.57115152568295 -46.734363312954166,-23.571161874990537 -46.73434002345196,-23.57115743806787 -46.73430790603148,-23.571155795363637 -46.73427489775844,-23.57115201079334 -46.7342465646,-23.571147451788434 -46.734237902166335,-23.571146013673967 -46.73422186604552,-23.571142852216425 -46.73419618048033,-23.571136909430862 -46.73416171970406,-23.571127092176823 -46.73414931463196,-23.571123619345883 -46.734133248376764,-23.571118044990172 -46.734106352531434,-23.571112921015228 -46.734089126484,-23.57110119931039 -46.734069176001015,-23.571092553930754 -46.73403242422777,-23.57107436602041 -46.733984641813315,-23.571046641050415 -46.733955871957114,-23.571027280675935 -46.73393327610759,-23.571010559855196 -46.73390257152835,-23.570985352751393 -46.73389423352739,-23.570977862127563 -46.73388385022647,-23.57096840812801 -46.733865437779706,-23.57095037667642 -46.73386163342202,-23.570946398377174 -46.733843322572376,-23.570933938487684 -46.733784965461496,-23.570835255952687 -46.7337797393974,-23.570828098398167 -46.73375995408146,-23.57080394309756 -46.733756694522214,-23.570800401800156 -46.7336420033175,-23.570701308558668 -46.733622814370015,-23.570689009755384 -46.73359034469245,-23.570670864242203 -46.733538086875456,-23.57064680031405 -46.733497826509975,-23.570632082108943 -46.733474311157615,-23.570625302453465 -46.73345890467125,-23.57062086994638 -46.733420745309374,-23.57061235771826 -46.733388445142296,-23.570607120546384 -46.73336772359079,-23.57060489890435 -46.733238309848744,-23.570604922468505 -46.73322977403285,-23.57060573048021 -46.733204857991424,-23.57060916823309 -46.73319744149417,-23.570610334330283 -46.7331750019126,-23.57061458231476 -46.73313356597951,-23.57062475616344 -46.7331254428529,-23.570627026895963 -46.73310677798363,-23.570632832521028 -46.73310416829609,-23.57063197423578 -46.73310030893838,-23.570632921831617 -46.73239130875277,-23.570405914386768 -46.73238972769876,-23.57040462163799 -46.732385142360926,-23.57040325751342 -46.732296225350815,-23.570328169422226 -46.73207333934635,-23.570145926451204 -46.73194635649017,-23.570133889739623 -46.731946545339206,-23.57013276603115 -46.73194586403739,-23.570132704401118 -46.73195782171483,-23.57006513069817 -46.73195963271656,-23.570054892182384 -46.73198030052567,-23.569931912380753 -46.731896511749426,-23.569882440174027 -46.731878392881114,-23.569872542200102 -46.731649754164195,-23.569746980302938 -46.731604108186474,-23.56972193919468 -46.73141268165521,-23.569618893839603 -46.73114000003338,-23.569473418158154 -46.731269771900244,-23.569698218543707 -46.73118986277821,-23.569616771796845 -46.731186798333745,-23.569614903320527 -46.73061326514423,-23.569309933395203 -46.7306162836016,-23.569305478503935 -46.730613276560284,-23.569304047788535 -46.7306465590351,-23.569254834719416 -46.730670647513406,-23.569219085732158 -46.730588147836336,-23.5691741413206 -46.730564495588716,-23.56916101769903 -46.72992626197951,-23.568818865775043 -46.72992554391046,-23.568815662330493 -46.729899232185986,-23.56880161948483 -46.729867738627576,-23.56886391654416 -46.72984869342251,-23.56898321235765 -46.72938606422566,-23.568668312184286 -46.729381073989714,-23.56867586110492 -46.729313206619956,-23.56863788541206 -46.729024163634065,-23.568486132420972 -46.72892767273673,-23.568560548767564 -46.72893204648608,-23.56856674094496 -46.72887917755312,-23.56861310198329 -46.728789008973884,-23.568611667436954 -46.728656330356145,-23.568559335328104 -46.72867181040405,-23.56853730334757 -46.72867011873496,-23.56853680960944 -46.72857247385063,-23.568571101873488 -46.72836605518895,-23.568630726618792 -46.727906660191614,-23.568723137562557 -46.72757667659809,-23.56877257899893 -46.72740894201793,-23.56880685468218 -46.72725579939047,-23.568851260144214 -46.72709398567029,-23.568899734226335 -46.7270843813772,-23.568900382651776 -46.727024497867994,-23.568916937745385 -46.72693442408054,-23.56895982948197 -46.72682731547079,-23.569015820762402 -46.726739043913994,-23.569066817735774 -46.72654887152658,-23.569176727202546 -46.72634199654644,-23.56925720952877 -46.72633690842771,-23.569258309912755 -46.72631381641059,-23.569271082015234 -46.726251366014274,-23.569276809774806 -46.726187094822166,-23.569290709406516 -46.7260310686843,-23.56931853386132 -46.726028413954246,-23.569319375883282 -46.725839993251924,-23.569353247696796 -46.725661665187026,-23.569423842239473 -46.72536977349663,-23.569569638345712 -46.725280603639376,-23.56961378307733 -46.725278965861484,-23.569612085902904 -46.7252427563865,-23.569641468388028 -46.72520830077886,-23.56966288658508 -46.725181296474126,-23.569679617678418 -46.72513858656226,-23.56970609299954 -46.72501208158191,-23.569810960367874 -46.72493437529282,-23.56987312433472 -46.724906566779694,-23.56990250378142 -46.724890232094964,-23.569919748373678 -46.724870551114144,-23.569940551101496 -46.72474898732487,-23.57005267626684 -46.72468832473723,-23.570108602069936 -46.724539183110345,-23.570218324686678 -46.72439324487141,-23.570325935139778 -46.72430072519108,-23.570390287803804 -46.72430072507818,-23.570390287896885 -46.72430072449534,-23.57039028828774 -46.7242682014352,-23.57041290990577 -46.72427891890935,-23.570423263695744 -46.724158689050405,-23.570501517902713 -46.723874056308965,-23.570683885309677 -46.723846743424254,-23.57069472141501 -46.723701937385954,-23.57079182609735 -46.72356395025928,-23.570918879817285 -46.723564600822016,-23.570920245317254 -46.72353218322005,-23.57094931453156 -46.723516453137684,-23.57096339241707 -46.72348022441307,-23.570995971588147 -46.7234544347508,-23.571019717779564 -46.7234544405827,-23.571019728113058 -46.72347600046355,-23.571057644039655 -46.723497496576776,-23.57109541434194 -46.723504620497515,-23.571108641493225 -46.723505360559784,-23.57110995280304 -46.7235053605598,-23.571109952803056 -46.7235053605598,-23.57110995280307 -46.72347468051402,-23.571117425344966 -46.72342283513863,-23.57113013324505 -46.723152572022975,-23.571307481918737 -46.722930609072655,-23.57150109426688 -46.72277473545189,-23.571662699419377 -46.722751232995066,-23.571639538512528 -46.72270332447997,-23.57156135307025 -46.7226931575463,-23.571571993791338 -46.72268646358371,-23.57157901971283 -46.722673155248295,-23.571592980390704 -46.72267462677026,-23.571594318307703 -46.72265854399452,-23.571606142973152 -46.72265854399441,-23.571606142973252 -46.72259382850831,-23.571556935739878 -46.7223530293571,-23.571395651421284 -46.72222932720362,-23.57131315044623 -46.722089791876314,-23.5712176753903 -46.721917225918716,-23.57108684132598 -46.721917225908896,-23.57108684131738 -46.72187865657298,-23.57105305180741 -46.72180274129574,-23.570986362041324 -46.72180274125304,-23.57098636200385 -46.72180274125231,-23.570986362004803 -46.721757739592974,-23.571047800980494 -46.72175664370656,-23.571047101721945 -46.721756643706556,-23.571047101721945 -46.72175664370289,-23.571047101719586 -46.72175203747074,-23.57104416259449 -46.721722058889334,-23.57102490354106 -46.72172521197492,-23.571018909992773 -46.72173275322884,-23.57100871485264 -46.721739941656125,-23.57099902953658 -46.72174186278659,-23.570996249913932 -46.72131684647407,-23.570730412936854 -46.721075756263815,-23.570541638101133 -46.72096504668287,-23.57043899500188 -46.72075607059788,-23.570255973917966 -46.72021757893478,-23.570050123996424 -46.718894051671306,-23.569708864187348 -46.71864774385533,-23.569628085616998 -46.71856740277675,-23.569653336769505 -46.71824831982459,-23.56983616776526 -46.71801013835597,-23.569955399506725 -46.71771964645832,-23.569875107923494 -46.7172904925046,-23.569411420569423 -46.71698864226026,-23.56905223143181 -46.71692166774978,-23.568956739466657 -46.71682285708614,-23.568706813441253 -46.71679425604658,-23.568631264023793 -46.716285840389936,-23.568783518810633 -46.715869997711614,-23.568918456658167 -46.71564345555849,-23.56893623181375 -46.7156233833763,-23.5689180213124 -46.715606513658194,-23.568898734989432 -46.715601602746844,-23.56889313794605 -46.715440641009444,-23.568709113867214 -46.715431106326136,-23.568698200204707 -46.71543110274211,-23.56869819610725 -46.71537287759786,-23.56863162876641 -46.71530189771075,-23.568503201280393 -46.71530019661738,-23.568500125804206 -46.715155678536895,-23.568238639166125 -46.71515567804095,-23.56823863826878 -46.71505855037132,-23.56809495329493 -46.714985654466524,-23.56800984335014 -46.714854974985435,-23.56779379530724 -46.714788154119084,-23.56765567843307 -46.71471008905745,-23.5675785358451 -46.714638300089184,-23.56754303439307 -46.714584127210145,-23.567539117932412 -46.71453304648204,-23.56758048905519 -46.71449020219685,-23.568119964187815 -46.714486220991,-23.56811963536431 -46.71448596302924,-23.568122611974047 -46.714376391214365,-23.56811370908703 -46.714245239136254,-23.56810387048803 -46.71425756737183,-23.567762614964366 -46.714275142349074,-23.567190893968288 -46.71423018025831,-23.566986964628498 -46.71417427571748,-23.566986958193752 -46.7141742522826,-23.566985152805856 -46.7141742443927,-23.56698454498003 -46.71330611678116,-23.566947976253886 -46.713301574715466,-23.567052326391874 -46.71329861886835,-23.567129057844696 -46.71329823535596,-23.567129045314573 -46.713298151314504,-23.567130976094333 -46.71242658558657,-23.567102012328164 -46.712426337963215,-23.5671080654823 -46.71234515267518,-23.567107876582668 -46.71234312763753,-23.567107447481845 -46.712343474800285,-23.567099250400304 -46.7123331541033,-23.567098907424125 -46.71249241087377,-23.563277317816244 -46.71247884550068,-23.56327689535796 -46.71248442300618,-23.563252277093966 -46.712487417260874,-23.56318417116728 -46.71249016452956,-23.563121936317998 -46.712492726851295,-23.56306412734419 -46.71249759514505,-23.562953658317454 -46.71250239320552,-23.56284400260506 -46.71250401909009,-23.562807420314215 -46.71251114772456,-23.562628311745357 -46.7125154752372,-23.562519744602497 -46.71251967750088,-23.56241397759338 -46.71252223280492,-23.562349397511355 -46.71252439361924,-23.562304232495464 -46.7125269758306,-23.562247958099036 -46.71252943630463,-23.562194754645816 -46.71253439003109,-23.562084645798123 -46.71253929576102,-23.56197706538586 -46.71254344418224,-23.561867145972727 -46.71254722388179,-23.561766168580718 -46.71254741116815,-23.561761923243367 -46.712555510188146,-23.56154551732284 -46.71256008817384,-23.561437579385938 -46.71256473404833,-23.5613286475932 -46.71256937875098,-23.561219625529787 -46.712574015259854,-23.561109971578418 -46.71257852886047,-23.56100329830025 -46.71258318409151,-23.56089508865925 -46.712584294933386,-23.560868623668185 -46.712587702370506,-23.560788776457002 -46.712592515626476,-23.560674064737412 -46.71259690982564,-23.560570642937833 -46.712597408474,-23.560559261857264 -46.712599414014534,-23.560512179756373 -46.71260106412192,-23.560434345196725 -46.712575727968805,-23.560388505769907 -46.71253213942007,-23.56030357877667 -46.71253067489713,-23.56030185892594 -46.712485087975516,-23.560269897230285 -46.7124546542725,-23.560260006784887 -46.71245411056617,-23.560259929108298 -46.71244713801529,-23.560257929420658 -46.71244009757341,-23.560256923587417 -46.71243316363877,-23.560257902794405 -46.71234710393288,-23.56027392795029 -46.71232712262649,-23.560277849627184 -46.71228874317969,-23.560284820768544 -46.712142731610456,-23.560322709824135 -46.712141685464495,-23.5603233035188 -46.71210408048043,-23.560363925012595 -46.71210887468488,-23.56035076588506 -46.71210111857331,-23.560352926004896 -46.7120772394741,-23.560367724473977 -46.71207771125914,-23.56035426719214 -46.71208528794705,-23.560328092116634 -46.712097164974075,-23.56030340448048 -46.712112780505215,-23.56028048131799 -46.71213141117992,-23.560259601442496 -46.71215281821776,-23.560241038330133 -46.712166590151405,-23.560231677836185 -46.712176520549335,-23.560225068125717 -46.712192248346554,-23.56021704032443 -46.71221071975034,-23.560208801737858 -46.71222945099185,-23.560201914524015 -46.71239678194059,-23.560155652419397 -46.71243582805248,-23.56013942287538 -46.71245508716678,-23.560129640782137 -46.71248528912523,-23.56011034876613 -46.712512703000876,-23.560087837290723 -46.71253309398871,-23.560065674024656 -46.7125569636649,-23.56003146486843 -46.71257628017148,-23.55999495852579 -46.712589931553474,-23.559957611767402 -46.712594430934516,-23.559930838596117 -46.71259585080235,-23.559897057320086 -46.71259638701642,-23.559838728954063 -46.71259666695885,-23.5597544020668 -46.71260324302955,-23.55961366957041 -46.71262528919042,-23.55950111533201 -46.71267159462484,-23.55935326423993 -46.71270872569111,-23.559270337008783 -46.712819609409976,-23.559081959839475 -46.71297614345472,-23.558857237469766 -46.713045091028235,-23.55876122976491 -46.71307264498791,-23.55873086208885 -46.71316410636774,-23.55864562070626 -46.71326217026253,-23.558577460174703 -46.713300124903746,-23.558551853092624 -46.713396415458945,-23.558502671336413 -46.7134917438196,-23.558454041823367 -46.71767851364384,-23.556403425429934 -46.72399515333879,-23.55328818690427 -46.73139542385042,-23.549524352577876 -46.730566459199004,-23.547768928431395 -46.73195667311628,-23.546762607588676 -46.733089351567884,-23.5458522259147 -46.73385705176971,-23.54504682069043 -46.73369757397786,-23.544895483547123 -46.733678354356364,-23.54487718999529 -46.733681265711034,-23.544873606676774 -46.73138535313808,-23.54271250880261 -46.730792751534025,-23.542080178180612 -46.73045217534197,-23.54173475653812 -46.729900170216986,-23.54117374463604 -46.72816817244601,-23.53963174793158 -46.72641213436907,-23.537859776827887 -46.7255861811833,-23.537270730544833 -46.72652517317455,-23.535760724283605 -46.72713113268791,-23.535001766830135 -46.72850916450529,-23.533546732614752 -46.73495137460229,-23.52653902138725 -46.733088100150376,-23.525135762802762 -46.733224190126116,-23.524681211449206 -46.73189517932726,-23.524200899071417 -46.73250690921731,-23.5225195366054 -46.72373311418332,-23.522121663704922 -46.7235760700019,-23.521372703944138 -46.722262061229074,-23.521599683895516 -46.72222103652381,-23.5214877360756 -46.72363806995057,-23.519647711868174 -46.72335309932914,-23.51959769076484 -46.72334403480186,-23.51958370704861 -46.723374076533716,-23.51954671973904 -46.723589110012306,-23.519335695943184 -46.72369407679258,-23.519229715627247 -46.72400107519275,-23.519036722517853 -46.72449810266234,-23.51871567963714 -46.72455504586801,-23.518679658045798 -46.724905070046255,-23.5183866952852 -46.72503710148595,-23.51827571954375 -46.72528909176742,-23.51798871760998 -46.72547312008435,-23.51775970772897 -46.72554104806561,-23.51755672203946 -46.72585406156334,-23.51661169620303 -46.725907066001064,-23.516434696616415 -46.72591807638495,-23.516077687932338 -46.72640212041592,-23.515226644912687 -46.727587126835054,-23.51590470156306 -46.729393101283385,-23.516935626522965 -46.73179609756029,-23.51827063978172 -46.73206911270031,-23.518369711409747 -46.73262111472208,-23.518573655040726 -46.73288910817021,-23.51860362487986 -46.733657153011535,-23.518668652805815 -46.7338931181808,-23.518694644055344 -46.7341111960182,-23.518686617267065 -46.7354191531225,-23.518599634506288 -46.73601817246726,-23.518564696797455 -46.73868322966268,-23.518419661827664 -46.74020224008796,-23.518337684709536 -46.740186167105,-23.51726865478922 -46.74017822458904,-23.516842612547066 -46.74060121618731,-23.516722593421704 -46.74207517838588,-23.516673604169966 -46.74276421897148,-23.516681600830864 -46.74331026744783,-23.516745635806714 -46.74411927206425,-23.51694160403578 -46.74488123391183,-23.51722566862827 -46.745246228718436,-23.517410627133785 -46.745974230375,-23.517880595945016 -46.7467482896517,-23.518560581329083 -46.747203262998006,-23.519095630899344 -46.747621297265184,-23.519682644528558 -46.74798330581807,-23.520441640672274 -46.74706625320063,-23.520369599601224 -46.7472262529107,-23.52065363561266 -46.74849330012849,-23.523685601322512 -46.74880727366692,-23.524248681236628 -46.75003833082191,-23.5251216793572 -46.75045432063544,-23.525258652786675 -46.75191931866378,-23.525483671078277 -46.75263430191068,-23.52547164832471 -46.75397835800777,-23.525326590995874 -46.754493352645184,-23.525207663302723 -46.755662370395,-23.52486459154285 -46.75612340141007,-23.524768657143113 -46.7564123411545,-23.525079665963034 -46.75652134577738,-23.525498605207858 -46.756387363243235,-23.525655672192812 -46.756372331866366,-23.52578864573516 -46.75652236518319,-23.526031614892275 -46.75677839533016,-23.526229600878537 -46.75707536338888,-23.52660967305907 -46.75765835213527,-23.527104602286272 -46.75852637732444,-23.527931612971145 -46.75898338420702,-23.528291635547433 -46.759020365499325,-23.528394589557934 -46.75954539629629,-23.528847643559445 -46.76045041928859,-23.529746629351067 -46.760247452498746,-23.531182681152075 -46.760138457030685,-23.532252662824632 -46.76026040256626,-23.53258062898105 -46.76088240946684,-23.535105615469433 -46.76091443268798,-23.535278683050706</coordinates></LinearRing></outerBoundaryIs></Polygon></Placemark></kml>